satname,norad_id,inclination_deg,eccentricity,mean_motion_rev_per_day,perigee_km,apogee_km,l1,l2
STARLINK-1133,45064,53.0542,0.0001352,15.06373787,546.3555801858874,548.2282161599533,1 45064U 20006W   25283.81994149  .00000962  00000+0  83538-4 0  9999,2 45064  53.0542 219.4074 0001352  96.1239 263.9904 15.06373787314152
STARLINK-1167,45071,53.0538,0.0001625,15.06391332,546.1127507795563,548.3634976949343,1 45071U 20006AD  25283.84572169  .00002082  00000+0  15868-3 0  9999,2 45071  53.0538 219.2897 0001625 116.4512 243.6644 15.06391332314151
STARLINK-1168,45072,53.0538,0.000174,15.06396925,546.0159700974937,548.4259946753627,1 45072U 20006AE  25283.84940735  .00001394  00000+0  11251-3 0  9995,2 45072  53.0538 219.2764 0001740 105.3513 254.7668 15.06396925314153
STARLINK-1172,45074,53.0536,0.0001516,15.06406733,546.1410426268412,548.2408020528937,1 45074U 20006AG  25283.26334744  .00005810  00000+0  40853-3 0  9997,2 45074  53.0536 221.9093 0001516  86.0925 274.0237 15.06406733314067
STARLINK-1153,45080,53.0537,0.0001674,15.06390621,546.080995211013,548.3996115321816,1 45080U 20006AN  25283.83835363  .00002555  00000+0  19043-3 0  9990,2 45080  53.0537 219.3215 0001674 114.4749 245.6415 15.06390621314157
STARLINK-1151,45081,53.0542,0.000159,15.06393192,546.131289817984,548.3335572946744,1 45081U 20006AP  25283.82361381 -.00000106  00000+0  11779-4 0  9994,2 45081  53.0542 219.4694 0001590  89.4183 270.6988 15.06393192314155
STARLINK-1190,45083,53.0448,0.0007127,15.80242159,324.97454689031383,334.53597652014923,1 45083U 20006AR  25283.91670139  .00073593  00000+0  38355-3 0  9997,2 45083  53.0448 181.3403 0007127 114.4868 321.3830 15.80242159  5995
STARLINK-1173,45084,53.0387,0.0001634,15.95752134,285.13050986160397,287.30842155459686,1 45084U 20006AS  25283.91670139  .00297079  46049-4  72414-3 0  9997,2 45084  53.0387 143.4779 0001634  74.2560  15.3047 15.95752134  6011
STARLINK-1185,45087,53.0532,0.0001444,15.06400401,546.2103087770065,548.2103490856016,1 45087U 20006AV  25283.79964753  .00003118  00000+0  22809-3 0  9998,2 45087  53.0532 199.4954 0001444  90.1465 269.9690 15.06400401314430
STARLINK-1183,45088,53.0531,0.0001158,15.0639139,546.4359880550983,548.039904892702,1 45088U 20006AW  25283.75542554  .00004156  00000+0  29779-3 0  9992,2 45088  53.0531 199.6992 0001158  91.5693 268.5429 15.06391390314424
STARLINK-1176,45090,53.0436,9.03e-05,15.92216017,295.48028193670325,296.68564606220207,1 45090U 20006AY  25283.91670139  .00262946  37115-4  77473-3 0  9993,2 45090  53.0436 141.6218 0000903 331.4353  76.6631 15.92216017  6007
STARLINK-1142,45093,53.036,0.0004344,15.55106838,398.8968593567115,404.7873051833876,1 45093U 20006BB  25283.86750127  .00089507  00000+0  12982-2 0  9997,2 45093  53.0360 140.0774 0004344 157.4402 202.6799 15.55106838315276
STARLINK-1147,45095,53.0327,0.0002592,16.12436028,238.4535756484811,241.88450549991467,1 45095U 20006BD  25283.52922760  .00921302  51973-3  81483-3 0  9996,2 45095  53.0327 138.3282 0002592 242.8540 117.2230 16.12436028315261
STARLINK-1152,45096,53.0476,0.0008809,15.22508368,492.2200935291203,504.33496064294104,1 45096U 20006BE  25283.72505233  .00006851  00000+0  30554-3 0  9998,2 45096  53.0476 184.4868 0008809 102.3364 257.8618 15.22508368314638
STARLINK-1184,45098,53.0539,0.0001412,15.06395427,546.247712364715,548.2034347554882,1 45098U 20006BG  25283.77016918  .00005586  00000+0  39363-3 0  9993,2 45098  53.0539 199.6318 0001412  86.6824 273.4327 15.06395427314426
STARLINK-1193,45100,53.0532,0.0001801,15.06396983,545.9735476835694,548.468061564794,1 45100U 20006BJ  25283.76645573 -.00005053  00000+0 -32061-3 0  9990,2 45100  53.0532 199.6495 0001801  82.7689 277.3504 15.06396983314425
STARLINK-1143,45179,53.0549,0.0005866,15.37208636,450.36014753417385,458.3760425116561,1 45179U 20012B   25283.54100053  .00072977  00000+0  19643-2 0  9995,2 45179  53.0549 329.1628 0005866 319.3783  40.6781 15.37208636312658
STARLINK-1202,45183,53.0567,0.0001929,15.06398487,545.8802944379177,548.5520957005765,1 45183U 20012F   25283.43103749  .00000665  00000+0  63548-4 0  9993,2 45183  53.0567   1.1590 0001929 126.3394 233.7773 15.06398487312193
STARLINK-1216,45185,53.0547,0.0001146,15.06394163,546.4358005654713,548.0230945552521,1 45185U 20012H   25283.62271015 -.00002721  00000+0 -16388-3 0  9994,2 45185  53.0547   0.2956 0001146  84.1744 275.9376 15.06394163312161
STARLINK-1225,45187,53.0557,0.0001219,15.06389571,546.3993176200611,548.087725391204,1 45187U 20012K   25283.50844588 -.00004398  00000+0 -27664-3 0  9995,2 45187  53.0557   0.8094 0001219  93.0399 267.0729 15.06389571312193
STARLINK-1230,45189,53.0556,0.000129,15.06391897,546.343019409911,548.129765745196,1 45189U 20012M   25283.57847711 -.00005974  00000+0 -38258-3 0  9997,2 45189  53.0556   0.4965 0001290  92.5670 267.5466 15.06391897309432
STARLINK-1234,45190,53.0548,9.78e-05,15.10206969,534.8921031894206,536.2444239389752,1 45190U 20012N   25283.91670139  .00068457  00000+0  41203-2 0  9991,2 45190  53.0548 318.9574 0000978 135.9424 169.0855 15.10206969  5799
STARLINK-1269,45197,53.0552,0.0001493,15.06386574,546.2187463169466,548.2866676834565,1 45197U 20012V   25283.52318804 -.00001339  00000+0 -71019-4 0  9991,2 45197  53.0552   0.7469 0001493  93.0920 267.0240 15.06386574312174
STARLINK-1154,45198,53.0546,0.0001462,15.06395055,546.214225517585,548.2392018674691,1 45198U 20012W   25283.44764066 -.00000339  00000+0 -38409-5 0  9994,2 45198  53.0546 341.0839 0001462  94.4567 265.6589 15.06395055312419
STARLINK-1199,45201,53.0549,0.0001285,15.06386205,546.3639252264102,548.1437506717621,1 45201U 20012Z   25283.85677502  .00006577  00000+0  46019-3 0  9994,2 45201  53.0549 339.2467 0001285  90.5614 269.5522 15.06386205312536
STARLINK-1209,45206,53.0541,0.0001229,15.0638408,546.4092195406683,548.1114822095133,1 45206U 20012AE  25283.79963765  .00008728  00000+0  60436-3 0  9990,2 45206  53.0541 319.5048 0001229 102.1726 257.9400 15.06384080311850
STARLINK-1210,45207,53.0273,0.001346,15.51326894,403.71028716287583,421.9916267429935,1 45207U 20012AF  25283.72788984  .00112809  00000+0  18625-2 0  9990,2 45207  53.0273 286.7112 0013460 340.2647  19.7839 15.51326894313263
STARLINK-1231,45212,53.0523,0.0003353,15.10535725,532.2472564527634,536.8829144712736,1 45212U 20012AL  25283.47772836  .00029565  00000+0  17829-2 0  9998,2 45212  53.0523 340.0227 0003353 310.9481  49.1219 15.10535725312446
STARLINK-1271,45217,53.0568,0.0001453,15.06398956,546.2085040393749,548.2210112601488,1 45217U 20012AR  25283.57664522 -.00000854  00000+0 -38461-4 0  9995,2 45217  53.0568 340.5016 0001453  88.1113 272.0042 15.06398956312490
STARLINK-1191,45222,53.0541,0.0001415,15.06403572,546.2206750225159,548.1805455662288,1 45222U 20012AW  25283.38682691  .00003571  00000+0  25851-3 0  9992,2 45222  53.0541 321.3544 0001415  79.9805 280.1344 15.06403572312748
STARLINK-1212,45223,53.0551,0.0001493,15.06388903,546.211609236273,548.279528471332,1 45223U 20012AX  25283.80341531 -.00000124  00000+0  10546-4 0  9993,2 45223  53.0551 320.1387 0001493  85.5017 274.6143 15.06388903312808
STARLINK-1215,45225,53.056,0.0001466,15.0639078,546.224555813249,548.2550762957171,1 45225U 20012AZ  25283.82544875  .00001565  00000+0  12394-3 0  9994,2 45225  53.0560 319.3854 0001466  97.0156 263.1000 15.06390780312767
STARLINK-1217,45226,53.0377,0.0001508,16.05550844,258.0757812247848,260.0775648685749,1 45226U 20012BA  25283.43792512  .00629836  20436-3  86768-3 0  9997,2 45226  53.0377 259.6695 0001508 116.5350 243.5837 16.05550844313527
STARLINK-1221,45227,53.0674,0.0001746,15.35904328,457.0420794719503,459.4293408223348,1 45227U 20012BB  25283.89296786  .00015322  00000+0  44209-3 0  9994,2 45227  53.0674 256.2233 0001746 268.1805  91.8997 15.35904328313648
STARLINK-1222,45228,53.0546,0.0001327,15.06393736,546.311759961367,548.1497525638788,1 45228U 20012BC  25283.79226697 -.00002321  00000+0 -13699-3 0  9994,2 45228  53.0546 319.5341 0001327  90.7892 269.3249 15.06393736312699
STARLINK-1226,45229,53.0548,0.0001525,15.06401806,546.1499080029398,548.2621376248981,1 45229U 20012BD  25283.82176154  .00002267  00000+0  17103-3 0  9992,2 45229  53.0548 319.4017 0001525  82.1105 278.0057 15.06401806312707
STARLINK-1227,45230,53.0554,0.000149,15.06390844,546.2077387853415,548.2715010180718,1 45230U 20012BE  25283.55268212 -.00003099  00000+0 -18930-3 0  9996,2 45230  53.0554 320.6092 0001490  84.2293 275.8865 15.06390844312784
STARLINK-1246,45235,53.0557,0.0001224,15.06387555,546.40203300134,548.0973676655804,1 45235U 20012BK  25283.50108050 -.00001753  00000+0 -98885-4 0  9992,2 45235  53.0557   0.8392 0001224  83.0330 277.0798 15.06387555312229
STARLINK-1270,45237,53.0529,0.0001566,15.06403373,546.1167122330853,548.2857281636507,1 45237U 20012BM  25283.83649624  .00000115  00000+0  26599-4 0  9999,2 45237  53.0529 319.3351 0001566  87.8855 272.2313 15.06403373312818
STARLINK-1279,45360,53.0533,0.000118,15.06383595,546.4446402940102,548.0790344196266,1 45360U 20019A   25283.72869420  .00007744  00000+0  53845-3 0  9997,2 45360  53.0533  89.8176 0001180  88.3808 271.7316 15.06383595307533
STARLINK-1301,45361,53.0529,8.03e-05,15.06502951,546.3399657663258,547.452126073501,1 45361U 20019B   25283.78301414  .00053799  00000+0  35932-2 0  9995,2 45361  53.0529  99.5755 0000803 311.3204  48.7716 15.06502951307412
STARLINK-1306,45362,53.0489,0.0007412,15.62231431,376.2028500580436,386.2229103204354,1 45362U 20019C   25283.91670139  .00237805  00000+0  25772-2 0  9997,2 45362  53.0489  95.0293 0007412 168.7121 241.5757 15.62231431  5924
STARLINK-1262,45366,53.053,9.82e-05,15.06386418,546.5731118086969,547.9332584410568,1 45366U 20019G   25283.81438944  .00002066  00000+0  15761-3 0  9993,2 45366  53.0530 119.4324 0000982  76.1367 283.9731 15.06386418307145
